SENTINEL-6              
1 46984U 20086A   23316.16555229 -.00000058  00000+0  14141-4 0  9995
2 46984  66.0409 304.1023 0007912 268.6309  91.3800 12.80931220139028
